{
"type": "FeatureCollection",
"crs": { "type": "name", "properties": { "name": "urn:ogc:def:crs:OGC:1.3:CRS84" } },
                                                                                
"features": [
{ "type": "Feature", "properties": { "Produkt": "Turn- und Sporthallen", "Teilprodukt": "Krafträume", "Objekt": "Sporthalle Berg Fidel", "Plz": 48153, "Strname": "Am Berg Fidel", "Hsnr": 51, "Rechtswert": 3405419, "Hochwert": 5755854 }, "geometry": { "type": "Point", "coordinates": [ 3405419.0, 5755854.0 ] } },
{ "type": "Feature", "properties": { "Produkt": "Turn- und Sporthallen", "Teilprodukt": "Dreifachhallen", "Objekt": "Sporthalle Berg Fidel", "Plz": 48153, "Strname": "Am Berg Fidel", "Hsnr": 51, "Rechtswert": 3405419, "Hochwert": 5755854 }, "geometry": { "type": "Point", "coordinates": [ 3405419.0, 5755854.0 ] } },
{ "type": "Feature", "properties": { "Produkt": "Sondersportanlagen", "Teilprodukt": "Skateanlagen", "Objekt": "Skaterpark Berg Fidel", "Plz": 48153, "Strname": "Am Berg Fidel", "Hsnr": 51, "Rechtswert": 3405419, "Hochwert": 5755854 }, "geometry": { "type": "Point", "coordinates": [ 3405419.0, 5755854.0 ] } },
{ "type": "Feature", "properties": { "Produkt": "Bezirkssportanlage", "Teilprodukt": "überlassen", "Objekt": "Sportanlage Am Hohen Ufer", "Plz": 48167, "Strname": "Am Hohen Ufer", "Hsnr": 111, "Rechtswert": 3410100, "Hochwert": 5755839 }, "geometry": { "type": "Point", "coordinates": [ 3410100.0, 5755839.0 ] } },
{ "type": "Feature", "properties": { "Produkt": "Sondersportanlagen", "Teilprodukt": "Bouleanlagen", "Objekt": "Sportanlage Am Hohen Ufer", "Plz": 48167, "Strname": "Am Hohen Ufer", "Hsnr": 111, "Rechtswert": 3410100, "Hochwert": 5755839 }, "geometry": { "type": "Point", "coordinates": [ 3410100.0, 5755839.0 ] } },
{ "type": "Feature", "properties": { "Produkt": "Sondersportanlagen", "Teilprodukt": "Speckbrettanlagen", "Objekt": "Sportanlage Am Hohen Ufer", "Plz": 48167, "Strname": "Am Hohen Ufer", "Hsnr": 111, "Rechtswert": 3410100, "Hochwert": 5755839 }, "geometry": { "type": "Point", "coordinates": [ 3410100.0, 5755839.0 ] } },
{ "type": "Feature", "properties": { "Produkt": "Sondersportanlagen", "Teilprodukt": "Beachvolleyballanlagen", "Objekt": "Sportanlage Gremmendorf", "Plz": 48167, "Strname": "Am Hohen Ufer", "Hsnr": 111, "Rechtswert": 3410100, "Hochwert": 5755839 }, "geometry": { "type": "Point", "coordinates": [ 3410100.0, 5755839.0 ] } },
{ "type": "Feature", "properties": { "Produkt": "Turn- und Sporthallen", "Teilprodukt": "Zweifachhalle", "Objekt": "Gymnasium Paulinum", "Plz": 48143, "Strname": "Am Stadtgraben", "Hsnr": 30, "Rechtswert": 3405034, "Hochwert": 5759339 }, "geometry": { "type": "Point", "coordinates": [ 3405034.0, 5759339.0 ] } },
{ "type": "Feature", "properties": { "Produkt": "Turn- und Sporthallen", "Teilprodukt": "Einfachhallen", "Objekt": "Nikolaischule Wolbeck", "Plz": 48167, "Strname": "Am Wigbold", "Hsnr": 11, "Rechtswert": 3412624, "Hochwert": 5754253 }, "geometry": { "type": "Point", "coordinates": [ 3412624.0, 5754253.0 ] } },
{ "type": "Feature", "properties": { "Produkt": "Turn- und Sporthallen", "Teilprodukt": "Zweifachhalle", "Objekt": "Ludgerusschule Hiltrup", "Plz": 48165, "Strname": "An der Alten Kirche", "Hsnr": 161, "Rechtswert": 3405549, "Hochwert": 5753073 }, "geometry": { "type": "Point", "coordinates": [ 3405549.0, 5753073.0 ] } },
{ "type": "Feature", "properties": { "Produkt": "Turn- und Sporthallen", "Teilprodukt": "Einfachhallen", "Objekt": "Pleisterschule", "Plz": 48155, "Strname": "An der Konradkirche", "Hsnr": 7, "Rechtswert": 3409197, "Hochwert": 5759655 }, "geometry": { "type": "Point", "coordinates": [ 3409197.0, 5759655.0 ] } },
{ "type": "Feature", "properties": { "Produkt": "Turn- und Sporthallen", "Teilprodukt": "Dreifachhallen", "Objekt": "Pestalozzischule Gremmendorf", "Plz": 48167, "Strname": "Anton-Knubel-Weg", "Hsnr": 10, "Rechtswert": 3408399, "Hochwert": 5756079 }, "geometry": { "type": "Point", "coordinates": [ 3408399.0, 5756079.0 ] } },
{ "type": "Feature", "properties": { "Produkt": "Bezirkssportanlage", "Teilprodukt": "überlassen", "Objekt": "Sportanlage Anton-Knubel-Weg", "Plz": 48167, "Strname": "Anton-Knubel-Weg", "Hsnr": 24, "Rechtswert": 3408537, "Hochwert": 5756024 }, "geometry": { "type": "Point", "coordinates": [ 3408537.0, 5756024.0 ] } },
{ "type": "Feature", "properties": { "Produkt": "Turn- und Sporthallen", "Teilprodukt": "Einfachhallen", "Objekt": "Michaelschule, Halle1", "Plz": 48149, "Strname": "Appelbreistiege", "Hsnr": 40, "Rechtswert": 3402567, "Hochwert": 5760269 }, "geometry": { "type": "Point", "coordinates": [ 3402567.0, 5760269.0 ] } },
{ "type": "Feature", "properties": { "Produkt": "Turn- und Sporthallen", "Teilprodukt": "Einfachhallen", "Objekt": "Michaelschule, Halle2", "Plz": 48149, "Strname": "Appelbreistiege", "Hsnr": 40, "Rechtswert": 3402567, "Hochwert": 5760269 }, "geometry": { "type": "Point", "coordinates": [ 3402567.0, 5760269.0 ] } },
{ "type": "Feature", "properties": { "Produkt": "Bezirkssportanlage", "Teilprodukt": "nicht überlassen", "Objekt": "Sportanlage Arnheimweg", "Plz": 48161, "Strname": "Arnheimweg", "Hsnr": 40, "Rechtswert": 3402056, "Hochwert": 5760036 }, "geometry": { "type": "Point", "coordinates": [ 3402056.0, 5760036.0 ] } },
{ "type": "Feature", "properties": { "Produkt": "Sondersportanlagen", "Teilprodukt": "Beachvolleyballanlagen", "Objekt": "Sportanlage Arnheimweg", "Plz": 48161, "Strname": "Arnheimweg", "Hsnr": 40, "Rechtswert": 3402056, "Hochwert": 5760036 }, "geometry": { "type": "Point", "coordinates": [ 3402056.0, 5760036.0 ] } },
{ "type": "Feature", "properties": { "Produkt": "Sondersportanlagen", "Teilprodukt": "Speckbrettanlagen", "Objekt": "Sportanlage Arnheimweg", "Plz": 48161, "Strname": "Arnheimweg", "Hsnr": 40, "Rechtswert": 3402056, "Hochwert": 5760036 }, "geometry": { "type": "Point", "coordinates": [ 3402056.0, 5760036.0 ] } },
{ "type": "Feature", "properties": { "Produkt": "Turn- und Sporthallen", "Teilprodukt": "Einfachhallen", "Objekt": "Marienschule Roxel", "Plz": 48161, "Strname": "Auf dem Dorn", "Hsnr": 17, "Rechtswert": 3399110, "Hochwert": 5758929 }, "geometry": { "type": "Point", "coordinates": [ 3399110.0, 5758929.0 ] } },
{ "type": "Feature", "properties": { "Produkt": "Bezirkssportanlage", "Teilprodukt": "überlassen", "Objekt": "Sportanlage August-Schepers-Straße", "Plz": 48155, "Strname": "August-Schepers-Straße", "Hsnr": 20, "Rechtswert": 3407508, "Hochwert": 5758430 }, "geometry": { "type": "Point", "coordinates": [ 3407508.0, 5758430.0 ] } },
{ "type": "Feature", "properties": { "Produkt": "Turn- und Sporthallen", "Teilprodukt": "Einfachhallen", "Objekt": "Erich-Klausener- ", "Plz": 48151, "Strname": "Bismarckallee", "Hsnr": 55, "Rechtswert": 3404464, "Hochwert": 5758486 }, "geometry": { "type": "Point", "coordinates": [ 3404464.0, 5758486.0 ] } },
{ "type": "Feature", "properties": { "Produkt": "Turn- und Sporthallen", "Teilprodukt": "Einfachhallen", "Objekt": "Paul-Gerhardt-Schule Hiltrup", "Plz": 48165, "Strname": "Bodelschwinghstraße", "Hsnr": 22, "Rechtswert": 3406872, "Hochwert": 5753372 }, "geometry": { "type": "Point", "coordinates": [ 3406872.0, 5753372.0 ] } },
{ "type": "Feature", "properties": { "Produkt": "Turn- und Sporthallen", "Teilprodukt": "Gymnastikräume", "Objekt": "Paul-Gerhardt-Schule-Hiltrup", "Plz": 48165, "Strname": "Bodelschwinghstraße", "Hsnr": 22, "Rechtswert": 3406872, "Hochwert": 5753372 }, "geometry": { "type": "Point", "coordinates": [ 3406872.0, 5753372.0 ] } },
{ "type": "Feature", "properties": { "Produkt": "Turn- und Sporthallen", "Teilprodukt": "Dreifachhallen", "Objekt": "Paul-Gerhardt-Schule-Hiltrup", "Plz": 48165, "Strname": "Bodelschwinghstraße", "Hsnr": 22, "Rechtswert": 3406872, "Hochwert": 5753372 }, "geometry": { "type": "Point", "coordinates": [ 3406872.0, 5753372.0 ] } },
{ "type": "Feature", "properties": { "Produkt": "Turn- und Sporthallen", "Teilprodukt": "Einfachhallen", "Objekt": "Ratsgymnasium alte Halle", "Plz": 48147, "Strname": "Bohlweg", "Hsnr": 7, "Rechtswert": 3406468, "Hochwert": 5760094 }, "geometry": { "type": "Point", "coordinates": [ 3406468.0, 5760094.0 ] } },
{ "type": "Feature", "properties": { "Produkt": "Turn- und Sporthallen", "Teilprodukt": "Einfachhallen", "Objekt": "Ratsgymnasium neue Halle", "Plz": 48147, "Strname": "Bohlweg", "Hsnr": 7, "Rechtswert": 3406468, "Hochwert": 5760094 }, "geometry": { "type": "Point", "coordinates": [ 3406468.0, 5760094.0 ] } },
{ "type": "Feature", "properties": { "Produkt": "Turn- und Sporthallen", "Teilprodukt": "Dreifachhallen", "Objekt": "Dietrich-Bonhoeffer- ", "Plz": 48151, "Strname": "Bonhoefferstraße", "Hsnr": 54, "Rechtswert": 3404134, "Hochwert": 5757258 }, "geometry": { "type": "Point", "coordinates": [ 3404134.0, 5757258.0 ] } },
{ "type": "Feature", "properties": { "Produkt": "Bezirkssportanlage", "Teilprodukt": "überlassen", "Objekt": "Sportanlage Aaseestadt", "Plz": 48151, "Strname": "Bonhoefferstraße", "Hsnr": 54, "Rechtswert": 3404134, "Hochwert": 5757258 }, "geometry": { "type": "Point", "coordinates": [ 3404134.0, 5757258.0 ] } },
{ "type": "Feature", "properties": { "Produkt": "Sondersportanlagen", "Teilprodukt": "Beachvolleyballanlagen", "Objekt": "Sportanlage Aaseestadt", "Plz": 48151, "Strname": "Bonhoefferstraße", "Hsnr": 54, "Rechtswert": 3404134, "Hochwert": 5757258 }, "geometry": { "type": "Point", "coordinates": [ 3404134.0, 5757258.0 ] } },
{ "type": "Feature", "properties": { "Produkt": "Sondersportanlagen", "Teilprodukt": "Bouleanlagen", "Objekt": "Sportanlage Aaseestadt", "Plz": 48151, "Strname": "Bonhoefferstraße", "Hsnr": 54, "Rechtswert": 3404134, "Hochwert": 5757258 }, "geometry": { "type": "Point", "coordinates": [ 3404134.0, 5757258.0 ] } },
{ "type": "Feature", "properties": { "Produkt": "Sondersportanlagen", "Teilprodukt": "Speckbrettanlagen", "Objekt": "Sportanlage Aaseestadt", "Plz": 48151, "Strname": "Bonhoefferstraße", "Hsnr": 54, "Rechtswert": 3404134, "Hochwert": 5757258 }, "geometry": { "type": "Point", "coordinates": [ 3404134.0, 5757258.0 ] } },
{ "type": "Feature", "properties": { "Produkt": "Bezirkssportanlage", "Teilprodukt": "nicht überlassen", "Objekt": "Sportzentrum Wolbeck", "Plz": 48167, "Strname": "Brandhoveweg", "Hsnr": 97, "Rechtswert": 3411575, "Hochwert": 5754185 }, "geometry": { "type": "Point", "coordinates": [ 3411575.0, 5754185.0 ] } },
{ "type": "Feature", "properties": { "Produkt": "Sondersportanlagen", "Teilprodukt": "Bouleanlagen", "Objekt": "Sportzentrum Wolbeck", "Plz": 48167, "Strname": "Brandhoveweg", "Hsnr": 97, "Rechtswert": 3411575, "Hochwert": 5754185 }, "geometry": { "type": "Point", "coordinates": [ 3411575.0, 5754185.0 ] } },
{ "type": "Feature", "properties": { "Produkt": "Sondersportanlagen", "Teilprodukt": "Beachvolleyballanlagen", "Objekt": "Sportanlage Wolbeck", "Plz": 48167, "Strname": "Brandhoveweg", "Hsnr": 97, "Rechtswert": 3411575, "Hochwert": 5754185 }, "geometry": { "type": "Point", "coordinates": [ 3411575.0, 5754185.0 ] } },
{ "type": "Feature", "properties": { "Produkt": "Turn- und Sporthallen", "Teilprodukt": "Gymnastikräume", "Objekt": "Aegidii-Ludgeri- ", "Plz": 48143, "Strname": "Breite Gasse", "Hsnr": 2, "Rechtswert": 3405455, "Hochwert": 5759268 }, "geometry": { "type": "Point", "coordinates": [ 3405455.0, 5759268.0 ] } },
{ "type": "Feature", "properties": { "Produkt": "Turn- und Sporthallen", "Teilprodukt": "Einfachhallen", "Objekt": "Margaretenschule", "Plz": 48155, "Strname": "Brentanoweg", "Hsnr": 18, "Rechtswert": 3408916, "Hochwert": 5758408 }, "geometry": { "type": "Point", "coordinates": [ 3408916.0, 5758408.0 ] } },
{ "type": "Feature", "properties": { "Produkt": "Turn- und Sporthallen", "Teilprodukt": "Einfachhallen", "Objekt": "Uppenbergschule", "Plz": 48159, "Strname": "Bröderichweg", "Hsnr": 36, "Rechtswert": 3405028, "Hochwert": 5763007 }, "geometry": { "type": "Point", "coordinates": [ 3405028.0, 5763007.0 ] } },
{ "type": "Feature", "properties": { "Produkt": "Sportaußenanlagen an Schulen", "Teilprodukt": "Förderschulen", "Objekt": "Sportfläche Uppenberg- ", "Plz": 48159, "Strname": "Bröderichweg", "Hsnr": 36, "Rechtswert": 3405028, "Hochwert": 5763007 }, "geometry": { "type": "Point", "coordinates": [ 3405028.0, 5763007.0 ] } },
{ "type": "Feature", "properties": { "Produkt": "Turn- und Sporthallen", "Teilprodukt": "Gymnastikräume", "Objekt": "Sportpark Sentruper Höhe", "Plz": 48149, "Strname": "Sentruper Straße", "Hsnr": 155, "Rechtswert": 3403806, "Hochwert": 5758721 }, "geometry": { "type": "Point", "coordinates": [ 3403806.0, 5758721.0 ] } },
{ "type": "Feature", "properties": { "Produkt": "Bezirkssportanlage", "Teilprodukt": "nicht überlassen", "Objekt": "Sportpark Sentruper Höhe", "Plz": 48149, "Strname": "Sentruper Straße", "Hsnr": 155, "Rechtswert": 3403806, "Hochwert": 5758721 }, "geometry": { "type": "Point", "coordinates": [ 3403806.0, 5758721.0 ] } },
{ "type": "Feature", "properties": { "Produkt": "Sondersportanlagen", "Teilprodukt": "Bouleanlagen", "Objekt": "Sportpark Sentruper Höhe", "Plz": 48149, "Strname": "Sentruper Straße", "Hsnr": 155, "Rechtswert": 3403806, "Hochwert": 5758721 }, "geometry": { "type": "Point", "coordinates": [ 3403806.0, 5758721.0 ] } },
{ "type": "Feature", "properties": { "Produkt": "Sondersportanlagen", "Teilprodukt": "Trimmanlagen", "Objekt": "Sportpark Sentruper Höhe", "Plz": 48149, "Strname": "Sentruper Straße", "Hsnr": 155, "Rechtswert": 3403806, "Hochwert": 5758721 }, "geometry": { "type": "Point", "coordinates": [ 3403806.0, 5758721.0 ] } },
{ "type": "Feature", "properties": { "Produkt": "Sondersportanlagen", "Teilprodukt": "Speckbrettanlagen", "Objekt": "Sportpark Sentruper Höhe", "Plz": 48149, "Strname": "Sentruper Straße", "Hsnr": 155, "Rechtswert": 3403806, "Hochwert": 5758721 }, "geometry": { "type": "Point", "coordinates": [ 3403806.0, 5758721.0 ] } },
{ "type": "Feature", "properties": { "Produkt": "Sondersportanlagen", "Teilprodukt": "Beachvolleyballanlagen", "Objekt": "Sportpark Sentruper Höhe", "Plz": 48149, "Strname": "Sentruper Straße", "Hsnr": 155, "Rechtswert": 3403806, "Hochwert": 5758721 }, "geometry": { "type": "Point", "coordinates": [ 3403806.0, 5758721.0 ] } },
{ "type": "Feature", "properties": { "Produkt": "Turn- und Sporthallen", "Teilprodukt": "Einfachhallen", "Objekt": "Martin-Luther-Grundschule", "Plz": 48147, "Strname": "Coerdestraße", "Hsnr": 8, "Rechtswert": 3405785, "Hochwert": 5760355 }, "geometry": { "type": "Point", "coordinates": [ 3405785.0, 5760355.0 ] } },
{ "type": "Feature", "properties": { "Produkt": "Sportaußenanlagen an Schulen", "Teilprodukt": "Grundschulen", "Objekt": "Sportfläche Martin-Luther- ", "Plz": 48147, "Strname": "Coerdestraße", "Hsnr": 8, "Rechtswert": 3405785, "Hochwert": 5760355 }, "geometry": { "type": "Point", "coordinates": [ 3405785.0, 5760355.0 ] } },
{ "type": "Feature", "properties": { "Produkt": "Bezirkssportanlage", "Teilprodukt": "überlassen", "Objekt": "Sportanlage Coerde, Coerheide", "Plz": 48157, "Strname": "Coerheide", "Hsnr": 47, "Rechtswert": 3406977, "Hochwert": 5763634 }, "geometry": { "type": "Point", "coordinates": [ 3406977.0, 5763634.0 ] } },
{ "type": "Feature", "properties": { "Produkt": "Sondersportanlagen", "Teilprodukt": "Trimmanlagen", "Objekt": "Sportanlage Coerde, Coerheide", "Plz": 48157, "Strname": "Coerheide", "Hsnr": 47, "Rechtswert": 3406977, "Hochwert": 5763634 }, "geometry": { "type": "Point", "coordinates": [ 3406977.0, 5763634.0 ] } },
{ "type": "Feature", "properties": { "Produkt": "Bezirkssportanlage", "Teilprodukt": "überlassen", "Objekt": "Sportanlage Coppenrathsweg", "Plz": 48155, "Strname": "Coppenrathsweg", "Hsnr": 19, "Rechtswert": 3408400, "Hochwert": 5761045 }, "geometry": { "type": "Point", "coordinates": [ 3408400.0, 5761045.0 ] } },
{ "type": "Feature", "properties": { "Produkt": "Turn- und Sporthallen", "Teilprodukt": "Einfachhallen", "Objekt": "Hauptschule Coerde", "Plz": 48157, "Strname": "Dachsleite", "Hsnr": 32, "Rechtswert": 3407198, "Hochwert": 5763439 }, "geometry": { "type": "Point", "coordinates": [ 3407198.0, 5763439.0 ] } },
{ "type": "Feature", "properties": { "Produkt": "Turn- und Sporthallen", "Teilprodukt": "Einfachhallen", "Objekt": "Hermannschule", "Plz": 48153, "Strname": "Dahlweg", "Hsnr": 66, "Rechtswert": 3405620, "Hochwert": 5757664 }, "geometry": { "type": "Point", "coordinates": [ 3405620.0, 5757664.0 ] } },
{ "type": "Feature", "properties": { "Produkt": "Sportaußenanlagen an Schulen", "Teilprodukt": "Grundschulen", "Objekt": "Sportfläche Hermannschule", "Plz": 48153, "Strname": "Dahlweg", "Hsnr": 66, "Rechtswert": 3405620, "Hochwert": 5757664 }, "geometry": { "type": "Point", "coordinates": [ 3405620.0, 5757664.0 ] } },
{ "type": "Feature", "properties": { "Produkt": "Turn- und Sporthallen", "Teilprodukt": "Dreifachhallen", "Objekt": "Mosaikschule", "Plz": 48161, "Strname": "Dieckmannstraße", "Hsnr": 131, "Rechtswert": 3401581, "Hochwert": 5759999 }, "geometry": { "type": "Point", "coordinates": [ 3401581.0, 5759999.0 ] } },
{ "type": "Feature", "properties": { "Produkt": "Turn- und Sporthallen", "Teilprodukt": "Vierfachhalle", "Objekt": "Freiherr-vom-Stein-Gymnasium", "Plz": 48161, "Strname": "Dieckmannstraße", "Hsnr": 141, "Rechtswert": 3401718, "Hochwert": 5759536 }, "geometry": { "type": "Point", "coordinates": [ 3401718.0, 5759536.0 ] } },
{ "type": "Feature", "properties": { "Produkt": "Turn- und Sporthallen", "Teilprodukt": "Gymnastikräume", "Objekt": "Freiherr-vom-Stein-Gymnasium", "Plz": 48161, "Strname": "Dieckmannstraße", "Hsnr": 141, "Rechtswert": 3401718, "Hochwert": 5759536 }, "geometry": { "type": "Point", "coordinates": [ 3401718.0, 5759536.0 ] } },
{ "type": "Feature", "properties": { "Produkt": "Sportaußenanlagen an Schulen", "Teilprodukt": "Gymnasien\/B.-Kollegs", "Objekt": "Sportfläche Freiherr-vom-Stein-Gymnasium", "Plz": 48161, "Strname": "Dieckmannstraße", "Hsnr": 141, "Rechtswert": 3401718, "Hochwert": 5759536 }, "geometry": { "type": "Point", "coordinates": [ 3401718.0, 5759536.0 ] } },
{ "type": "Feature", "properties": { "Produkt": "Turn- und Sporthallen", "Teilprodukt": "Einfachhallen", "Objekt": "Peter-Wust- ", "Plz": 48163, "Strname": "Dingbängerweg", "Hsnr": 80, "Rechtswert": 3402439, "Hochwert": 5756385 }, "geometry": { "type": "Point", "coordinates": [ 3402439.0, 5756385.0 ] } },
{ "type": "Feature", "properties": { "Produkt": "Sportaußenanlagen an Schulen", "Teilprodukt": "Grundschulen", "Objekt": "Sportfläche Peter-Wust-Schule, Dingbänger Weg", "Plz": 48163, "Strname": "Dingbängerweg", "Hsnr": 80, "Rechtswert": 3402439, "Hochwert": 5756385 }, "geometry": { "type": "Point", "coordinates": [ 3402439.0, 5756385.0 ] } },
{ "type": "Feature", "properties": { "Produkt": "Turn- und Sporthallen", "Teilprodukt": "Einfachhallen", "Objekt": "Matthias-Claudius-Schule Handorf", "Plz": 48157, "Strname": "Drostestraße", "Hsnr": 7, "Rechtswert": 3410999, "Hochwert": 5762557 }, "geometry": { "type": "Point", "coordinates": [ 3410999.0, 5762557.0 ] } },
{ "type": "Feature", "properties": { "Produkt": "Sportaußenanlagen an Schulen", "Teilprodukt": "Grundschulen", "Objekt": "Sportfläche Matthias-Claudius- ", "Plz": 48157, "Strname": "Drostestraße", "Hsnr": 7, "Rechtswert": 3410999, "Hochwert": 5762557 }, "geometry": { "type": "Point", "coordinates": [ 3410999.0, 5762557.0 ] } },
{ "type": "Feature", "properties": { "Produkt": "Sondersportanlagen", "Teilprodukt": "Beachvolleyballanlagen", "Objekt": " ", "Plz": 48157, "Strname": "Dyckburgstraße", "Hsnr": 468, "Rechtswert": 3410740, "Hochwert": 5763710 }, "geometry": { "type": "Point", "coordinates": [ 3410740.0, 5763710.0 ] } },
{ "type": "Feature", "properties": { "Produkt": "Bezirkssportanlage", "Teilprodukt": "überlassen", "Objekt": "Sportanlage Egelshove", "Plz": 48163, "Strname": "Egelshove", "Hsnr": 1, "Rechtswert": 3401957, "Hochwert": 5756767 }, "geometry": { "type": "Point", "coordinates": [ 3401957.0, 5756767.0 ] } },
{ "type": "Feature", "properties": { "Produkt": "Sondersportanlagen", "Teilprodukt": "Speckbrettanlagen", "Objekt": "Sportanlage Egelshove", "Plz": 48163, "Strname": "Egelshove", "Hsnr": 1, "Rechtswert": 3401957, "Hochwert": 5756767 }, "geometry": { "type": "Point", "coordinates": [ 3401957.0, 5756767.0 ] } },
{ "type": "Feature", "properties": { "Produkt": "Sondersportanlagen", "Teilprodukt": "Beachvolleyballanlagen", "Objekt": "Sportanlage Egelshove", "Plz": 48163, "Strname": "Egelshove", "Hsnr": 1, "Rechtswert": 3401957, "Hochwert": 5756767 }, "geometry": { "type": "Point", "coordinates": [ 3401957.0, 5756767.0 ] } },
{ "type": "Feature", "properties": { "Produkt": "Turn- und Sporthallen", "Teilprodukt": "Einfachhallen", "Objekt": "Eichendorffschule Angelmodde", "Plz": 48167, "Strname": "Eichendorffstraße", "Hsnr": 36, "Rechtswert": 3410264, "Hochwert": 5754275 }, "geometry": { "type": "Point", "coordinates": [ 3410264.0, 5754275.0 ] } },
{ "type": "Feature", "properties": { "Produkt": "Bezirkssportanlage", "Teilprodukt": "nicht überlassen", "Objekt": "Sportanlage Angelmodde", "Plz": 48167, "Strname": "Eichendorffstraße", "Hsnr": 38, "Rechtswert": 3410322, "Hochwert": 5754300 }, "geometry": { "type": "Point", "coordinates": [ 3410322.0, 5754300.0 ] } },
{ "type": "Feature", "properties": { "Produkt": "Bezirkssportanlage", "Teilprodukt": "überlassen", "Objekt": "Sportzentrum Feldstiege", "Plz": 48161, "Strname": "Feldstiege", "Hsnr": 45, "Rechtswert": 3400422, "Hochwert": 5763838 }, "geometry": { "type": "Point", "coordinates": [ 3400422.0, 5763838.0 ] } },
{ "type": "Feature", "properties": { "Produkt": "Sondersportanlagen", "Teilprodukt": "Bouleanlagen", "Objekt": "Sportzentrum Feldstiege", "Plz": 48161, "Strname": "Feldstiege", "Hsnr": 45, "Rechtswert": 3400422, "Hochwert": 5763838 }, "geometry": { "type": "Point", "coordinates": [ 3400422.0, 5763838.0 ] } },
{ "type": "Feature", "properties": { "Produkt": "Sondersportanlagen", "Teilprodukt": "Beachvolleyballanlagen", "Objekt": "Sportanlage Nienberge", "Plz": 48161, "Strname": "Feldstiege", "Hsnr": 45, "Rechtswert": 3400422, "Hochwert": 5763838 }, "geometry": { "type": "Point", "coordinates": [ 3400422.0, 5763838.0 ] } },
{ "type": "Feature", "properties": { "Produkt": "Turn- und Sporthallen", "Teilprodukt": "Einfachhallen", "Objekt": "Realschule im Kreuzviertel, Halle 2", "Plz": 48147, "Strname": "Finkenstraße", "Hsnr": 76, "Rechtswert": 3405275, "Hochwert": 5760899 }, "geometry": { "type": "Point", "coordinates": [ 3405275.0, 5760899.0 ] } },
{ "type": "Feature", "properties": { "Produkt": "Turn- und Sporthallen", "Teilprodukt": "Einfachhallen", "Objekt": "Realschule im Kreuzviertel, Halle 1", "Plz": 48147, "Strname": "Finkenstraße", "Hsnr": 76, "Rechtswert": 3405275, "Hochwert": 5760899 }, "geometry": { "type": "Point", "coordinates": [ 3405275.0, 5760899.0 ] } },
{ "type": "Feature", "properties": { "Produkt": "Turn- und Sporthallen", "Teilprodukt": "Einfachhallen", "Objekt": "Dreifaltigkeitsschule", "Plz": 48147, "Strname": "Friesenring", "Hsnr": 25, "Rechtswert": 3404976, "Hochwert": 5761033 }, "geometry": { "type": "Point", "coordinates": [ 3404976.0, 5761033.0 ] } },
{ "type": "Feature", "properties": { "Produkt": "Sportaußenanlagen an Schulen", "Teilprodukt": "Grundschulen", "Objekt": "Sportfläche Dreifaltigkeits- ", "Plz": 48147, "Strname": "Friesenring", "Hsnr": 25, "Rechtswert": 3404976, "Hochwert": 5761033 }, "geometry": { "type": "Point", "coordinates": [ 3404976.0, 5761033.0 ] } },
{ "type": "Feature", "properties": { "Produkt": "Turn- und Sporthallen", "Teilprodukt": "Einfachhallen", "Objekt": "Astrid Lindgren-Schule Gelmer", "Plz": 48157, "Strname": "Gelmerheide", "Hsnr": 3, "Rechtswert": 3409148, "Hochwert": 5767031 }, "geometry": { "type": "Point", "coordinates": [ 3409148.0, 5767031.0 ] } },
{ "type": "Feature", "properties": { "Produkt": "Turn- und Sporthallen", "Teilprodukt": "Einfachhallen", "Objekt": "Schillergymnasium alte Halle", "Plz": 48149, "Strname": "Gertrudenstraße", "Hsnr": 5, "Rechtswert": 3405288, "Hochwert": 5760331 }, "geometry": { "type": "Point", "coordinates": [ 3405288.0, 5760331.0 ] } },
{ "type": "Feature", "properties": { "Produkt": "Turn- und Sporthallen", "Teilprodukt": "Einfachhallen", "Objekt": "Schillergymnasium neue Halle", "Plz": 48149, "Strname": "Gertrudenstraße", "Hsnr": 5, "Rechtswert": 3405288, "Hochwert": 5760331 }, "geometry": { "type": "Point", "coordinates": [ 3405288.0, 5760331.0 ] } },
{ "type": "Feature", "properties": { "Produkt": "Sportaußenanlagen an Schulen", "Teilprodukt": "Gymnasien\/B.-Kollegs", "Objekt": "Sportfläche Schiller-Gymnasium", "Plz": 48149, "Strname": "Gertrudenstraße", "Hsnr": 5, "Rechtswert": 3405288, "Hochwert": 5760331 }, "geometry": { "type": "Point", "coordinates": [ 3405288.0, 5760331.0 ] } },
{ "type": "Feature", "properties": { "Produkt": "Turn- und Sporthallen", "Teilprodukt": "Einfachhallen", "Objekt": "Gottfried-v-Cappenberg  ", "Plz": 48151, "Strname": "Glatzer Weg", "Hsnr": 9, "Rechtswert": 3404643, "Hochwert": 5756378 }, "geometry": { "type": "Point", "coordinates": [ 3404643.0, 5756378.0 ] } },
{ "type": "Feature", "properties": { "Produkt": "Sportaußenanlagen an Schulen", "Teilprodukt": "Grundschulen", "Objekt": "Sportfläche Gottfried-von-Cappenberg- ", "Plz": 48151, "Strname": "Glatzer Weg", "Hsnr": 9, "Rechtswert": 3404643, "Hochwert": 5756378 }, "geometry": { "type": "Point", "coordinates": [ 3404643.0, 5756378.0 ] } },
{ "type": "Feature", "properties": { "Produkt": "Turn- und Sporthallen", "Teilprodukt": "Einfachhallen", "Objekt": "Geistschule, alte H.", "Plz": 48151, "Strname": "Grevingstraße", "Hsnr": 24, "Rechtswert": 3405310, "Hochwert": 5757048 }, "geometry": { "type": "Point", "coordinates": [ 3405310.0, 5757048.0 ] } },
{ "type": "Feature", "properties": { "Produkt": "Turn- und Sporthallen", "Teilprodukt": "Einfachhallen", "Objekt": "Geistschule, neue H.", "Plz": 48151, "Strname": "Grevingstraße", "Hsnr": 24, "Rechtswert": 3405310, "Hochwert": 5757048 }, "geometry": { "type": "Point", "coordinates": [ 3405310.0, 5757048.0 ] } },
{ "type": "Feature", "properties": { "Produkt": "Bezirkssportanlage", "Teilprodukt": "überlassen", "Objekt": "Sportanlage Grevingstraße", "Plz": 48151, "Strname": "Grevingstraße", "Hsnr": 32, "Rechtswert": 3405355, "Hochwert": 5756819 }, "geometry": { "type": "Point", "coordinates": [ 3405355.0, 5756819.0 ] } },
{ "type": "Feature", "properties": { "Produkt": "Sondersportanlagen", "Teilprodukt": "Bouleanlagen", "Objekt": "Sportanlage Grevingstraße", "Plz": 48151, "Strname": "Grevingstraße", "Hsnr": 32, "Rechtswert": 3405355, "Hochwert": 5756819 }, "geometry": { "type": "Point", "coordinates": [ 3405355.0, 5756819.0 ] } },
{ "type": "Feature", "properties": { "Produkt": "Sondersportanlagen", "Teilprodukt": "Speckbrettanlagen", "Objekt": "Sportanlage Grevingstraße", "Plz": 48151, "Strname": "Grevingstraße", "Hsnr": 32, "Rechtswert": 3405355, "Hochwert": 5756819 }, "geometry": { "type": "Point", "coordinates": [ 3405355.0, 5756819.0 ] } },
{ "type": "Feature", "properties": { "Produkt": "Sondersportanlagen", "Teilprodukt": "Beachvolleyballanlagen", "Objekt": "Sportanlage Grevingstraße", "Plz": 48151, "Strname": "Grevingstraße", "Hsnr": 32, "Rechtswert": 3405355, "Hochwert": 5756819 }, "geometry": { "type": "Point", "coordinates": [ 3405355.0, 5756819.0 ] } },
{ "type": "Feature", "properties": { "Produkt": "Turn- und Sporthallen", "Teilprodukt": "Einfachhallen", "Objekt": "Waldschule Kinderhaus", "Plz": 48159, "Strname": "Große Wiese", "Hsnr": 14, "Rechtswert": 3404653, "Hochwert": 5763948 }, "geometry": { "type": "Point", "coordinates": [ 3404653.0, 5763948.0 ] } },
{ "type": "Feature", "properties": { "Produkt": "Sportaußenanlagen an Schulen", "Teilprodukt": "Haupt-\/Realschulen", "Objekt": "Sportfläche Waldschule Kinderhaus", "Plz": 48159, "Strname": "Große Wiese", "Hsnr": 14, "Rechtswert": 3404653, "Hochwert": 5763948 }, "geometry": { "type": "Point", "coordinates": [ 3404653.0, 5763948.0 ] } },
{ "type": "Feature", "properties": { "Produkt": "Turn- und Sporthallen", "Teilprodukt": "Einfachhallen", "Objekt": "Annette-von-Droste-Hülshoff-Gymnasium", "Plz": 48143, "Strname": "Grüne Gasse", "Hsnr": 40, "Rechtswert": 3405500, "Hochwert": 5759118 }, "geometry": { "type": "Point", "coordinates": [ 3405500.0, 5759118.0 ] } },
{ "type": "Feature", "properties": { "Produkt": "Sportaußenanlagen an Schulen", "Teilprodukt": "Gymnasien\/B.-Kollegs", "Objekt": "Sportfläche Annette-von-Droste-Hülshoff-Gymnasium", "Plz": 48143, "Strname": "Grüne Gasse", "Hsnr": 40, "Rechtswert": 3405500, "Hochwert": 5759118 }, "geometry": { "type": "Point", "coordinates": [ 3405500.0, 5759118.0 ] } },
{ "type": "Feature", "properties": { "Produkt": "Turn- und Sporthallen", "Teilprodukt": "Einfachhallen", "Objekt": "Matthias-Claudius- ", "Plz": 48151, "Strname": "Gut Insel", "Hsnr": 36, "Rechtswert": 3404668, "Hochwert": 5756968 }, "geometry": { "type": "Point", "coordinates": [ 3404668.0, 5756968.0 ] } },
{ "type": "Feature", "properties": { "Produkt": "Sportaußenanlagen an Schulen", "Teilprodukt": "Grundschulen", "Objekt": "Sportfläche Matthias-Claudius- ", "Plz": 48151, "Strname": "Gut Insel", "Hsnr": 36, "Rechtswert": 3404668, "Hochwert": 5756968 }, "geometry": { "type": "Point", "coordinates": [ 3404668.0, 5756968.0 ] } },
{ "type": "Feature", "properties": { "Produkt": "Turn- und Sporthallen", "Teilprodukt": "Dreifachhallen", "Objekt": "Ludwig-Erhard-Berufskolleg", "Plz": 48151, "Strname": "Gut Insel", "Hsnr": 41, "Rechtswert": 3404633, "Hochwert": 5756804 }, "geometry": { "type": "Point", "coordinates": [ 3404633.0, 5756804.0 ] } },
{ "type": "Feature", "properties": { "Produkt": "Sportaußenanlagen an Schulen", "Teilprodukt": "Gymnasien\/B.-Kollegs", "Objekt": "Sportfläche Ludwig-Erhard-Berufskolleg", "Plz": 48151, "Strname": "Gut Insel", "Hsnr": 41, "Rechtswert": 3404633, "Hochwert": 5756804 }, "geometry": { "type": "Point", "coordinates": [ 3404633.0, 5756804.0 ] } },
{ "type": "Feature", "properties": { "Produkt": "Turn- und Sporthallen", "Teilprodukt": "Einfachhallen", "Objekt": "Bodelschwinghschule", "Plz": 48145, "Strname": "Gutenbergstraße", "Hsnr": 14, "Rechtswert": 3406945, "Hochwert": 5759334 }, "geometry": { "type": "Point", "coordinates": [ 3406945.0, 5759334.0 ] } },
{ "type": "Feature", "properties": { "Produkt": "Sportaußenanlagen an Schulen", "Teilprodukt": "Grundschulen", "Objekt": "Sportfläche Bodelschwinghschule", "Plz": 48145, "Strname": "Gutenbergstraße", "Hsnr": 14, "Rechtswert": 3406945, "Hochwert": 5759334 }, "geometry": { "type": "Point", "coordinates": [ 3406945.0, 5759334.0 ] } },
{ "type": "Feature", "properties": { "Produkt": "Sondersportanlagen", "Teilprodukt": "Bouleanlagen", "Objekt": "Hakenesheide Gelmer", "Plz": 48157, "Strname": "Hakenesheide", "Hsnr": 22, "Rechtswert": 3409321, "Hochwert": 5766659 }, "geometry": { "type": "Point", "coordinates": [ 3409321.0, 5766659.0 ] } },
{ "type": "Feature", "properties": { "Produkt": "Bezirkssportanlage", "Teilprodukt": "überlassen", "Objekt": "Sportanlage Hakenesheide", "Plz": 48157, "Strname": "Hakenesheide", "Hsnr": 39, "Rechtswert": 3409118, "Hochwert": 5766584 }, "geometry": { "type": "Point", "coordinates": [ 3409118.0, 5766584.0 ] } },
{ "type": "Feature", "properties": { "Produkt": "Bezirkssportanlage", "Teilprodukt": "überlassen", "Objekt": "Preußenstadion", "Plz": 48153, "Strname": "Hammer Straße", "Hsnr": 302, "Rechtswert": 3405518, "Hochwert": 5756072 }, "geometry": { "type": "Point", "coordinates": [ 3405518.0, 5756072.0 ] } },
{ "type": "Feature", "properties": { "Produkt": "Bezirkssportanlage", "Teilprodukt": "überlassen", "Objekt": "Sportanlage Hensenstraße", "Plz": 48161, "Strname": "Hensenstraße", "Hsnr": 100, "Rechtswert": 3402604, "Hochwert": 5760800 }, "geometry": { "type": "Point", "coordinates": [ 3402604.0, 5760800.0 ] } },
{ "type": "Feature", "properties": { "Produkt": "Sondersportanlagen", "Teilprodukt": "Beachvolleyballanlagen", "Objekt": "Sportanlage Hensenstraße", "Plz": 48161, "Strname": "Hensenstraße", "Hsnr": 100, "Rechtswert": 3402604, "Hochwert": 5760800 }, "geometry": { "type": "Point", "coordinates": [ 3402604.0, 5760800.0 ] } },
{ "type": "Feature", "properties": { "Produkt": "Turn- und Sporthallen", "Teilprodukt": "Zweifachhalle", "Objekt": "Turnhalle Middelfeld", "Plz": 48157, "Strname": "Heriburgstraße", "Hsnr": 17, "Rechtswert": 3411202, "Hochwert": 5762527 }, "geometry": { "type": "Point", "coordinates": [ 3411202.0, 5762527.0 ] } },
{ "type": "Feature", "properties": { "Produkt": "Bezirkssportanlage", "Teilprodukt": "überlassen", "Objekt": "Sportanlage Handorf", "Plz": 48157, "Strname": "Heriburgstraße", "Hsnr": 17, "Rechtswert": 3411202, "Hochwert": 5762527 }, "geometry": { "type": "Point", "coordinates": [ 3411202.0, 5762527.0 ] } },
{ "type": "Feature", "properties": { "Produkt": "Sondersportanlagen", "Teilprodukt": "Beachvolleyballanlagen", "Objekt": "Sportanlage Handorf", "Plz": 48157, "Strname": "Heriburgstraße", "Hsnr": 17, "Rechtswert": 3411202, "Hochwert": 5762527 }, "geometry": { "type": "Point", "coordinates": [ 3411202.0, 5762527.0 ] } },
{ "type": "Feature", "properties": { "Produkt": "Turn- und Sporthallen", "Teilprodukt": "Einfachhallen", "Objekt": "Josefschule", "Plz": 48151, "Strname": "Hermannstraße", "Hsnr": 58, "Rechtswert": 3405489, "Hochwert": 5758357 }, "geometry": { "type": "Point", "coordinates": [ 3405489.0, 5758357.0 ] } },
{ "type": "Feature", "properties": { "Produkt": "Sportaußenanlagen an Schulen", "Teilprodukt": "Grundschulen", "Objekt": "Sportfläche Josefschule", "Plz": 48151, "Strname": "Hermannstraße", "Hsnr": 58, "Rechtswert": 3405489, "Hochwert": 5758357 }, "geometry": { "type": "Point", "coordinates": [ 3405489.0, 5758357.0 ] } },
{ "type": "Feature", "properties": { "Produkt": "Turn- und Sporthallen", "Teilprodukt": "Einfachhallen", "Objekt": "Annette-von-Droste-Hülshoff  ", "Plz": 48167, "Strname": "Höftestraße", "Hsnr": 4, "Rechtswert": 3409299, "Hochwert": 5754961 }, "geometry": { "type": "Point", "coordinates": [ 3409299.0, 5754961.0 ] } },
{ "type": "Feature", "properties": { "Produkt": "Turn- und Sporthallen", "Teilprodukt": "Dreifachhallen", "Objekt": "Hans-Böckler-Berufskolleg", "Plz": 48155, "Strname": "Hoffschultestraße", "Hsnr": 25, "Rechtswert": 3407686, "Hochwert": 5758909 }, "geometry": { "type": "Point", "coordinates": [ 3407686.0, 5758909.0 ] } },
{ "type": "Feature", "properties": { "Produkt": "Turn- und Sporthallen", "Teilprodukt": "Einfachhallen", "Objekt": "Gemeinschaftsgrundschule Berg Fidel", "Plz": 48153, "Strname": "Hogenbergstraße", "Hsnr": 160, "Rechtswert": 3404872, "Hochwert": 5755419 }, "geometry": { "type": "Point", "coordinates": [ 3404872.0, 5755419.0 ] } },
{ "type": "Feature", "properties": { "Produkt": "Sportaußenanlagen an Schulen", "Teilprodukt": "Grundschulen", "Objekt": "Sportfläche Gemeinschaftsgrundschule Berg Fidel", "Plz": 48153, "Strname": "Hogenbergstraße", "Hsnr": 160, "Rechtswert": 3404872, "Hochwert": 5755419 }, "geometry": { "type": "Point", "coordinates": [ 3404872.0, 5755419.0 ] } },
{ "type": "Feature", "properties": { "Produkt": "Bezirkssportanlage", "Teilprodukt": "überlassen", "Objekt": "Sportanlage Concordenstraße", "Plz": 48163, "Strname": "Hohe Geist", "Hsnr": 7, "Rechtswert": 3398945, "Hochwert": 5755412 }, "geometry": { "type": "Point", "coordinates": [ 3398945.0, 5755412.0 ] } },
{ "type": "Feature", "properties": { "Produkt": "Turn- und Sporthallen", "Teilprodukt": "Dreifachhallen", "Objekt": "Ludgerusschule Albachten", "Plz": 48163, "Strname": "Hohe Geist", "Hsnr": 8, "Rechtswert": 3398798, "Hochwert": 5755359 }, "geometry": { "type": "Point", "coordinates": [ 3398798.0, 5755359.0 ] } },
{ "type": "Feature", "properties": { "Produkt": "Turn- und Sporthallen", "Teilprodukt": "Zweifachhalle", "Objekt": "Norbert-Grundschule", "Plz": 48147, "Strname": "Hoher Heckenweg", "Hsnr": 241, "Rechtswert": 3407174, "Hochwert": 5762450 }, "geometry": { "type": "Point", "coordinates": [ 3407174.0, 5762450.0 ] } },
{ "type": "Feature", "properties": { "Produkt": "Turn- und Sporthallen", "Teilprodukt": "Gymnastikräume", "Objekt": "Norbert-Grundschule", "Plz": 48147, "Strname": "Hoher Heckenweg", "Hsnr": 241, "Rechtswert": 3407174, "Hochwert": 5762450 }, "geometry": { "type": "Point", "coordinates": [ 3407174.0, 5762450.0 ] } },
{ "type": "Feature", "properties": { "Produkt": "Turn- und Sporthallen", "Teilprodukt": "Leichtathletikhalle", "Objekt": "Leichtathl.-halle", "Plz": 48149, "Strname": "Horstmarer Landweg", "Hsnr": 45, "Rechtswert": 3403913, "Hochwert": 5760490 }, "geometry": { "type": "Point", "coordinates": [ 3403913.0, 5760490.0 ] } },
{ "type": "Feature", "properties": { "Produkt": "Turn- und Sporthallen", "Teilprodukt": "Krafträume", "Objekt": "Leichtathl.-halle", "Plz": 48149, "Strname": "Horstmarer Landweg", "Hsnr": 45, "Rechtswert": 3403913, "Hochwert": 5760490 }, "geometry": { "type": "Point", "coordinates": [ 3403913.0, 5760490.0 ] } },
{ "type": "Feature", "properties": { "Produkt": "Sondersportanlagen", "Teilprodukt": "Beachvolleyballanlagen", "Objekt": "Universitätsgelände", "Plz": 48149, "Strname": "Horstmarer Landweg", "Hsnr": 62, "Rechtswert": 3403791, "Hochwert": 5760628 }, "geometry": { "type": "Point", "coordinates": [ 3403791.0, 5760628.0 ] } },
{ "type": "Feature", "properties": { "Produkt": "Bezirkssportanlage", "Teilprodukt": "überlassen", "Objekt": "Sportanlage Sprakel", "Plz": 48159, "Strname": "Im Draum", "Hsnr": 34, "Rechtswert": 3404852, "Hochwert": 5768148 }, "geometry": { "type": "Point", "coordinates": [ 3404852.0, 5768148.0 ] } },
{ "type": "Feature", "properties": { "Produkt": "Sondersportanlagen", "Teilprodukt": "Bouleanlagen", "Objekt": "Sportanlage Im Draum", "Plz": 48159, "Strname": "Im Draum", "Hsnr": 34, "Rechtswert": 3404852, "Hochwert": 5768148 }, "geometry": { "type": "Point", "coordinates": [ 3404852.0, 5768148.0 ] } },
{ "type": "Feature", "properties": { "Produkt": "Sondersportanlagen", "Teilprodukt": "Beachvolleyballanlagen", "Objekt": "Sportanlage Sprakel", "Plz": 48159, "Strname": "Im Draum", "Hsnr": 34, "Rechtswert": 3404852, "Hochwert": 5768148 }, "geometry": { "type": "Point", "coordinates": [ 3404852.0, 5768148.0 ] } },
{ "type": "Feature", "properties": { "Produkt": "Turn- und Sporthallen", "Teilprodukt": "Einfachhallen", "Objekt": "Turnhalle Dyckburg", "Plz": 48157, "Strname": "Im Sundern", "Hsnr": 11, "Rechtswert": 3409035, "Hochwert": 5762559 }, "geometry": { "type": "Point", "coordinates": [ 3409035.0, 5762559.0 ] } },
{ "type": "Feature", "properties": { "Produkt": "Turn- und Sporthallen", "Teilprodukt": "Einfachhallen", "Objekt": "Grundschule Sprakel", "Plz": 48159, "Strname": "In der Au", "Hsnr": 3, "Rechtswert": 3405075, "Hochwert": 5768015 }, "geometry": { "type": "Point", "coordinates": [ 3405075.0, 5768015.0 ] } },
{ "type": "Feature", "properties": { "Produkt": "Turn- und Sporthallen", "Teilprodukt": "Zweifachhalle", "Objekt": "Grundschule Kinderhaus-West", "Plz": 48159, "Strname": "Josef-Beckmann-Straße", "Hsnr": 33, "Rechtswert": 3403484, "Hochwert": 5763483 }, "geometry": { "type": "Point", "coordinates": [ 3403484.0, 5763483.0 ] } },
{ "type": "Feature", "properties": { "Produkt": "Sportaußenanlagen an Schulen", "Teilprodukt": "Grundschulen", "Objekt": "Sportfläche Grundschule Kinderhaus-West", "Plz": 48159, "Strname": "Josef-Beckmann-Straße", "Hsnr": 33, "Rechtswert": 3403484, "Hochwert": 5763483 }, "geometry": { "type": "Point", "coordinates": [ 3403484.0, 5763483.0 ] } },
{ "type": "Feature", "properties": { "Produkt": "Turn- und Sporthallen", "Teilprodukt": "Einfachhallen", "Objekt": "Paul-Gerhardt-Realschule", "Plz": 48143, "Strname": "Jüdefelderstraße", "Hsnr": 10, "Rechtswert": 3405202, "Hochwert": 5759806 }, "geometry": { "type": "Point", "coordinates": [ 3405202.0, 5759806.0 ] } },
{ "type": "Feature", "properties": { "Produkt": "Sportaußenanlagen an Schulen", "Teilprodukt": "Haupt-\/Realschulen", "Objekt": "Sportfläche Paul-Gerhardt-Realschule", "Plz": 48143, "Strname": "Jüdefelderstraße", "Hsnr": 10, "Rechtswert": 3405202, "Hochwert": 5759806 }, "geometry": { "type": "Point", "coordinates": [ 3405202.0, 5759806.0 ] } },
{ "type": "Feature", "properties": { "Produkt": "Sportaußenanlagen an Schulen", "Teilprodukt": "Haupt-\/Realschulen", "Objekt": "Sportfläche Überwasserschule", "Plz": 48143, "Strname": "Jüdefelderstraße", "Hsnr": 10, "Rechtswert": 3405202, "Hochwert": 5759806 }, "geometry": { "type": "Point", "coordinates": [ 3405202.0, 5759806.0 ] } },
{ "type": "Feature", "properties": { "Produkt": "Turn- und Sporthallen", "Teilprodukt": "Einfachhallen", "Objekt": "Adolph-Kolping-Berufskolleg", "Plz": 48145, "Strname": "Kaiser-Wilhelm-Ring", "Hsnr": 1, "Rechtswert": 3407009, "Hochwert": 5759763 }, "geometry": { "type": "Point", "coordinates": [ 3407009.0, 5759763.0 ] } },
{ "type": "Feature", "properties": { "Produkt": "Turn- und Sporthallen", "Teilprodukt": "Einfachhallen", "Objekt": "Kreuzschule", "Plz": 48147, "Strname": "Kampstraße", "Hsnr": 15, "Rechtswert": 3405496, "Hochwert": 5760419 }, "geometry": { "type": "Point", "coordinates": [ 3405496.0, 5760419.0 ] } },
{ "type": "Feature", "properties": { "Produkt": "Sportaußenanlagen an Schulen", "Teilprodukt": "Grundschulen", "Objekt": "Sportfläche Kreuzschule", "Plz": 48147, "Strname": "Kampstraße", "Hsnr": 15, "Rechtswert": 3405496, "Hochwert": 5760419 }, "geometry": { "type": "Point", "coordinates": [ 3405496.0, 5760419.0 ] } },
{ "type": "Feature", "properties": { "Produkt": "Turn- und Sporthallen", "Teilprodukt": "Einfachhallen", "Objekt": "Überwasserhalle 1x", "Plz": 48143, "Strname": "Katthagen", "Hsnr": 7, "Rechtswert": 3405244, "Hochwert": 5759833 }, "geometry": { "type": "Point", "coordinates": [ 3405244.0, 5759833.0 ] } },
{ "type": "Feature", "properties": { "Produkt": "Turn- und Sporthallen", "Teilprodukt": "Einfachhallen", "Objekt": "Annette-von-Droste-Hülshoff  ", "Plz": 48161, "Strname": "Kirmstraße", "Hsnr": 1, "Rechtswert": 3401180, "Hochwert": 5763419 }, "geometry": { "type": "Point", "coordinates": [ 3401180.0, 5763419.0 ] } },
{ "type": "Feature", "properties": { "Produkt": "Turn- und Sporthallen", "Teilprodukt": "Einfachhallen", "Objekt": "Melanchthonschule", "Plz": 48157, "Strname": "Königsberger Straße", "Hsnr": 91, "Rechtswert": 3407031, "Hochwert": 5763022 }, "geometry": { "type": "Point", "coordinates": [ 3407031.0, 5763022.0 ] } },
{ "type": "Feature", "properties": { "Produkt": "Sportaußenanlagen an Schulen", "Teilprodukt": "Grundschulen", "Objekt": "Sportfläche Melanchtonschule", "Plz": 48157, "Strname": "Königsberger Straße", "Hsnr": 91, "Rechtswert": 3407031, "Hochwert": 5763022 }, "geometry": { "type": "Point", "coordinates": [ 3407031.0, 5763022.0 ] } },
{ "type": "Feature", "properties": { "Produkt": "Sondersportanlagen", "Teilprodukt": "Beachvolleyballanlagen", "Objekt": "Freibad Stapelskotten", "Plz": 48157, "Strname": "Laerer Werseufer", "Hsnr": 2, "Rechtswert": 3410057, "Hochwert": 5757880 }, "geometry": { "type": "Point", "coordinates": [ 3410057.0, 5757880.0 ] } },
{ "type": "Feature", "properties": { "Produkt": "Turn- und Sporthallen", "Teilprodukt": "Dreifachhallen", "Objekt": "Adolph-Kolping-Berufskolleg", "Plz": 48147, "Strname": "Lotharingerstraße", "Hsnr": 30, "Rechtswert": 3406016, "Hochwert": 5760150 }, "geometry": { "type": "Point", "coordinates": [ 3406016.0, 5760150.0 ] } },
{ "type": "Feature", "properties": { "Produkt": "Bezirkssportanlage", "Teilprodukt": "überlassen", "Objekt": "Sportanlage Maikottenweg", "Plz": 48155, "Strname": "Maikottenweg", "Hsnr": 188, "Rechtswert": 3408743, "Hochwert": 5759650 }, "geometry": { "type": "Point", "coordinates": [ 3408743.0, 5759650.0 ] } },
{ "type": "Feature", "properties": { "Produkt": "Turn- und Sporthallen", "Teilprodukt": "Gymnastikräume", "Objekt": "Anne-Frank-Berufskolleg", "Plz": 48145, "Strname": "Manfred-von-Richthofen-Straße", "Hsnr": 39, "Rechtswert": 3407460, "Hochwert": 5759224 }, "geometry": { "type": "Point", "coordinates": [ 3407460.0, 5759224.0 ] } },
{ "type": "Feature", "properties": { "Produkt": "Sportaußenanlagen an Schulen", "Teilprodukt": "Haupt-\/Realschulen", "Objekt": "Sportfläche Fürstin-von-Gallitzin- ", "Plz": 48145, "Strname": "Manfred-von-Richthofen-Straße", "Hsnr": 46, "Rechtswert": 3407668, "Hochwert": 5759088 }, "geometry": { "type": "Point", "coordinates": [ 3407668.0, 5759088.0 ] } },
{ "type": "Feature", "properties": { "Produkt": "Sportaußenanlagen an Schulen", "Teilprodukt": "Förderschulen", "Objekt": "Sportfläche Albert-Schweitzer- ", "Plz": 48145, "Strname": "Manfred-von-Richthofen-Straße", "Hsnr": 49, "Rechtswert": 3407730, "Hochwert": 5759186 }, "geometry": { "type": "Point", "coordinates": [ 3407730.0, 5759186.0 ] } },
{ "type": "Feature", "properties": { "Produkt": "Turn- und Sporthallen", "Teilprodukt": "Dreifachhallen", "Objekt": "Sporthalle Ost", "Plz": 48145, "Strname": "Manfred-von-Richthofen-Straße", "Hsnr": 56, "Rechtswert": 3407768, "Hochwert": 5759133 }, "geometry": { "type": "Point", "coordinates": [ 3407768.0, 5759133.0 ] } },
{ "type": "Feature", "properties": { "Produkt": "Bezirkssportanlage", "Teilprodukt": "überlassen", "Objekt": "Sportanlage von-Richthofen-Straße", "Plz": 48145, "Strname": "Manfred-von-Richthofen-Straße", "Hsnr": 56, "Rechtswert": 3407768, "Hochwert": 5759133 }, "geometry": { "type": "Point", "coordinates": [ 3407768.0, 5759133.0 ] } },
{ "type": "Feature", "properties": { "Produkt": "Turn- und Sporthallen", "Teilprodukt": "Zweifachhalle", "Objekt": "Fürstin-von-Gallitzin- ", "Plz": 48145, "Strname": "Manfred-von-Richthofen-Straße", "Hsnr": 60, "Rechtswert": 3407901, "Hochwert": 5759093 }, "geometry": { "type": "Point", "coordinates": [ 3407901.0, 5759093.0 ] } },
{ "type": "Feature", "properties": { "Produkt": "Turn- und Sporthallen", "Teilprodukt": "Einfachhallen", "Objekt": "Overbergschule", "Plz": 48145, "Strname": "Margaretenstraße", "Hsnr": 6, "Rechtswert": 3406917, "Hochwert": 5758927 }, "geometry": { "type": "Point", "coordinates": [ 3406917.0, 5758927.0 ] } },
{ "type": "Feature", "properties": { "Produkt": "Sportaußenanlagen an Schulen", "Teilprodukt": "Grundschulen", "Objekt": "Sportfläche Overbergschule", "Plz": 48145, "Strname": "Margaretenstraße", "Hsnr": 6, "Rechtswert": 3406917, "Hochwert": 5758927 }, "geometry": { "type": "Point", "coordinates": [ 3406917.0, 5758927.0 ] } },
{ "type": "Feature", "properties": { "Produkt": "Bezirkssportanlage", "Teilprodukt": "überlassen", "Objekt": "Sportanlage Mauritz-Lindenweg", "Plz": 48145, "Strname": "Mauritz-Lindenweg", "Hsnr": 93, "Rechtswert": 3407929, "Hochwert": 5759326 }, "geometry": { "type": "Point", "coordinates": [ 3407929.0, 5759326.0 ] } },
{ "type": "Feature", "properties": { "Produkt": "Sondersportanlagen", "Teilprodukt": "Speckbrettanlagen", "Objekt": "Sportanlage Mauritz-Lindenweg", "Plz": 48145, "Strname": "Mauritz-Lindenweg", "Hsnr": 93, "Rechtswert": 3407929, "Hochwert": 5759326 }, "geometry": { "type": "Point", "coordinates": [ 3407929.0, 5759326.0 ] } },
{ "type": "Feature", "properties": { "Produkt": "Sondersportanlagen", "Teilprodukt": "Beachvolleyballanlagen", "Objekt": "Sportzentrum Ost", "Plz": 48145, "Strname": "Mauritz-Lindenweg", "Hsnr": 93, "Rechtswert": 3407929, "Hochwert": 5759326 }, "geometry": { "type": "Point", "coordinates": [ 3407929.0, 5759326.0 ] } },
{ "type": "Feature", "properties": { "Produkt": "Turn- und Sporthallen", "Teilprodukt": "Gymnastikräume", "Objekt": "SSB Gy", "Plz": 48145, "Strname": "Mauritz-Lindenweg", "Hsnr": 95, "Rechtswert": 3407930, "Hochwert": 5759303 }, "geometry": { "type": "Point", "coordinates": [ 3407930.0, 5759303.0 ] } },
{ "type": "Feature", "properties": { "Produkt": "Turn- und Sporthallen", "Teilprodukt": "Einfachhallen", "Objekt": "Wilhelm-Emanuel-von-Ketteler-Berufskolleg", "Plz": 48145, "Strname": "Mindener Straße", "Hsnr": 11, "Rechtswert": 3407210, "Hochwert": 5758955 }, "geometry": { "type": "Point", "coordinates": [ 3407210.0, 5758955.0 ] } },
{ "type": "Feature", "properties": { "Produkt": "Bezirkssportanlage", "Teilprodukt": "überlassen", "Objekt": "Sportanlage Hiltrup-Ost", "Plz": 48165, "Strname": "Osttor", "Hsnr": 85, "Rechtswert": 3408461, "Hochwert": 5753375 }, "geometry": { "type": "Point", "coordinates": [ 3408461.0, 5753375.0 ] } },
{ "type": "Feature", "properties": { "Produkt": "Sondersportanlagen", "Teilprodukt": "Bouleanlagen", "Objekt": "Sportanlage Hiltrup-Ost", "Plz": 48165, "Strname": "Osttor", "Hsnr": 85, "Rechtswert": 3408461, "Hochwert": 5753375 }, "geometry": { "type": "Point", "coordinates": [ 3408461.0, 5753375.0 ] } },
{ "type": "Feature", "properties": { "Produkt": "Sondersportanlagen", "Teilprodukt": "Speckbrettanlagen", "Objekt": "Sportanlage Hiltrup-Ost", "Plz": 48165, "Strname": "Osttor", "Hsnr": 85, "Rechtswert": 3408461, "Hochwert": 5753375 }, "geometry": { "type": "Point", "coordinates": [ 3408461.0, 5753375.0 ] } },
{ "type": "Feature", "properties": { "Produkt": "Sondersportanlagen", "Teilprodukt": "Beachvolleyballanlagen", "Objekt": "Sportanlage Hiltrup-Ost", "Plz": 48165, "Strname": "Osttor", "Hsnr": 85, "Rechtswert": 3408461, "Hochwert": 5753375 }, "geometry": { "type": "Point", "coordinates": [ 3408461.0, 5753375.0 ] } },
{ "type": "Feature", "properties": { "Produkt": "Turn- und Sporthallen", "Teilprodukt": "Einfachhallen", "Objekt": "Paul-Schneider-Schule Kinderhaus", "Plz": 48159, "Strname": "Pastorsesch", "Hsnr": 34, "Rechtswert": 3404774, "Hochwert": 5763658 }, "geometry": { "type": "Point", "coordinates": [ 3404774.0, 5763658.0 ] } },
{ "type": "Feature", "properties": { "Produkt": "Bezirkssportanlage", "Teilprodukt": "überlassen", "Objekt": "Sportanlage Pleistermühlenweg", "Plz": 48155, "Strname": "Pleistermühlenweg", "Hsnr": 119, "Rechtswert": 3409708, "Hochwert": 5759599 }, "geometry": { "type": "Point", "coordinates": [ 3409708.0, 5759599.0 ] } },
{ "type": "Feature", "properties": { "Produkt": "Sportaußenanlagen an Schulen", "Teilprodukt": "Förderschulen", "Objekt": "Sportfläche Erich-Kästner- ", "Plz": 48145, "Strname": "Pötterhoek", "Hsnr": 45, "Rechtswert": 3407555, "Hochwert": 5760802 }, "geometry": { "type": "Point", "coordinates": [ 3407555.0, 5760802.0 ] } },
{ "type": "Feature", "properties": { "Produkt": "Sportaußenanlagen an Schulen", "Teilprodukt": "Grundschulen", "Objekt": "Sportfläche Pötterhoekschule", "Plz": 48145, "Strname": "Pötterhoek", "Hsnr": 49, "Rechtswert": 3407575, "Hochwert": 5760700 }, "geometry": { "type": "Point", "coordinates": [ 3407575.0, 5760700.0 ] } },
{ "type": "Feature", "properties": { "Produkt": "Turn- und Sporthallen", "Teilprodukt": "Einfachhallen", "Objekt": "Wilhelm-Hittorf-Gymnasium", "Plz": 48151, "Strname": "Prinz-Eugen-Straße", "Hsnr": 27, "Rechtswert": 3405133, "Hochwert": 5757915 }, "geometry": { "type": "Point", "coordinates": [ 3405133.0, 5757915.0 ] } },
{ "type": "Feature", "properties": { "Produkt": "Turn- und Sporthallen", "Teilprodukt": "Gymnastikräume", "Objekt": "Wilhelm-Hittorf-Gymnasium", "Plz": 48151, "Strname": "Prinz-Eugen-Straße", "Hsnr": 27, "Rechtswert": 3405133, "Hochwert": 5757915 }, "geometry": { "type": "Point", "coordinates": [ 3405133.0, 5757915.0 ] } },
{ "type": "Feature", "properties": { "Produkt": "Turn- und Sporthallen", "Teilprodukt": "Zweifachhalle", "Objekt": "Wilhelm-Hittorf-Gymnasium", "Plz": 48151, "Strname": "Prinz-Eugen-Straße", "Hsnr": 27, "Rechtswert": 3405133, "Hochwert": 5757915 }, "geometry": { "type": "Point", "coordinates": [ 3405133.0, 5757915.0 ] } },
{ "type": "Feature", "properties": { "Produkt": "Sportaußenanlagen an Schulen", "Teilprodukt": "Gymnasien\/B.-Kollegs", "Objekt": "Sportfläche Hittorf-Gymnasium", "Plz": 48151, "Strname": "Prinz-Eugen-Straße", "Hsnr": 27, "Rechtswert": 3405133, "Hochwert": 5757915 }, "geometry": { "type": "Point", "coordinates": [ 3405133.0, 5757915.0 ] } },
{ "type": "Feature", "properties": { "Produkt": "Turn- und Sporthallen", "Teilprodukt": "Einfachhallen", "Objekt": "Brüder-Grimm-Sporthalle", "Plz": 48153, "Strname": "Scheibenstraße", "Hsnr": 114, "Rechtswert": 3405683, "Hochwert": 5756933 }, "geometry": { "type": "Point", "coordinates": [ 3405683.0, 5756933.0 ] } },
{ "type": "Feature", "properties": { "Produkt": "Sportaußenanlagen an Schulen", "Teilprodukt": "Grundschulen", "Objekt": "Sportfläche Peter-Wust-Schule, Am Schürbusch", "Plz": 48163, "Strname": "Schürbusch", "Hsnr": 45, "Rechtswert": 3402690, "Hochwert": 5756094 }, "geometry": { "type": "Point", "coordinates": [ 3402690.0, 5756094.0 ] } },
{ "type": "Feature", "properties": { "Produkt": "Bezirkssportanlage", "Teilprodukt": "überlassen", "Objekt": "Sportanlage Schwarzer Kamp", "Plz": 48163, "Strname": "Schwarzer Kamp", "Hsnr": 41, "Rechtswert": 3401715, "Hochwert": 5755793 }, "geometry": { "type": "Point", "coordinates": [ 3401715.0, 5755793.0 ] } },
{ "type": "Feature", "properties": { "Produkt": "Turn- und Sporthallen", "Teilprodukt": "Einfachhallen", "Objekt": "Johann-Conrad-Schlaun-Gymnasium,", "Plz": 48143, "Strname": "Sonnenstraße", "Hsnr": 18, "Rechtswert": 3406157, "Hochwert": 5759673 }, "geometry": { "type": "Point", "coordinates": [ 3406157.0, 5759673.0 ] } },
{ "type": "Feature", "properties": { "Produkt": "Turn- und Sporthallen", "Teilprodukt": "Einfachhallen", "Objekt": "Karl-Wagenfeld-Realschule, alte Halle", "Plz": 48153, "Strname": "Spichernstraße", "Hsnr": 17, "Rechtswert": 3405388, "Hochwert": 5756541 }, "geometry": { "type": "Point", "coordinates": [ 3405388.0, 5756541.0 ] } },
{ "type": "Feature", "properties": { "Produkt": "Turn- und Sporthallen", "Teilprodukt": "Einfachhallen", "Objekt": "Karl-Wagenfeld-Realschule, neue Halle", "Plz": 48153, "Strname": "Spichernstraße", "Hsnr": 17, "Rechtswert": 3405388, "Hochwert": 5756541 }, "geometry": { "type": "Point", "coordinates": [ 3405388.0, 5756541.0 ] } },
{ "type": "Feature", "properties": { "Produkt": "Sportaußenanlagen an Schulen", "Teilprodukt": "Haupt-\/Realschulen", "Objekt": "Sportfläche Karl-Wagenfeld-Realschule", "Plz": 48153, "Strname": "Spichernstraße", "Hsnr": 17, "Rechtswert": 3405388, "Hochwert": 5756541 }, "geometry": { "type": "Point", "coordinates": [ 3405388.0, 5756541.0 ] } },
{ "type": "Feature", "properties": { "Produkt": "Turn- und Sporthallen", "Teilprodukt": "Einfachhallen", "Objekt": "Martinischule", "Plz": 48143, "Strname": "Stiftsherrenstraße", "Hsnr": 40, "Rechtswert": 3406007, "Hochwert": 5759945 }, "geometry": { "type": "Point", "coordinates": [ 3406007.0, 5759945.0 ] } },
{ "type": "Feature", "properties": { "Produkt": "Sportaußenanlagen an Schulen", "Teilprodukt": "Grundschulen", "Objekt": "Sportfläche Martinischule", "Plz": 48143, "Strname": "Stiftsherrenstraße", "Hsnr": 40, "Rechtswert": 3406007, "Hochwert": 5759945 }, "geometry": { "type": "Point", "coordinates": [ 3406007.0, 5759945.0 ] } },
{ "type": "Feature", "properties": { "Produkt": "Turn- und Sporthallen", "Teilprodukt": "Einfachhallen", "Objekt": "Mauritzschule", "Plz": 48145, "Strname": "Stiftsstraße", "Hsnr": 17, "Rechtswert": 3407253, "Hochwert": 5759735 }, "geometry": { "type": "Point", "coordinates": [ 3407253.0, 5759735.0 ] } },
{ "type": "Feature", "properties": { "Produkt": "Sportaußenanlagen an Schulen", "Teilprodukt": "Grundschulen", "Objekt": "Sportfläche Mauritzschule", "Plz": 48145, "Strname": "Stiftsstraße", "Hsnr": 17, "Rechtswert": 3407253, "Hochwert": 5759735 }, "geometry": { "type": "Point", "coordinates": [ 3407253.0, 5759735.0 ] } },
{ "type": "Feature", "properties": { "Produkt": "Turn- und Sporthallen", "Teilprodukt": "Einfachhallen", "Objekt": "Thomas-Morus- ", "Plz": 48147, "Strname": "Thomas-Morus-Weg", "Hsnr": 5, "Rechtswert": 3406956, "Hochwert": 5760930 }, "geometry": { "type": "Point", "coordinates": [ 3406956.0, 5760930.0 ] } },
{ "type": "Feature", "properties": { "Produkt": "Sportaußenanlagen an Schulen", "Teilprodukt": "Grundschulen", "Objekt": "Sportfläche Thomas-Morus- ", "Plz": 48147, "Strname": "Thomas-Morus-Weg", "Hsnr": 5, "Rechtswert": 3406956, "Hochwert": 5760930 }, "geometry": { "type": "Point", "coordinates": [ 3406956.0, 5760930.0 ] } },
{ "type": "Feature", "properties": { "Produkt": "Turn- und Sporthallen", "Teilprodukt": "Dreifachhallen", "Objekt": "Schulzentrum Roxel", "Plz": 48161, "Strname": "Tilbecker Straße", "Hsnr": 24, "Rechtswert": 3398979, "Hochwert": 5758848 }, "geometry": { "type": "Point", "coordinates": [ 3398979.0, 5758848.0 ] } },
{ "type": "Feature", "properties": { "Produkt": "Sportaußenanlagen an Schulen", "Teilprodukt": "Schulzentren", "Objekt": "Sportfläche Schulzentrum Roxel", "Plz": 48161, "Strname": "Tilbecker Straße", "Hsnr": 24, "Rechtswert": 3398979, "Hochwert": 5758848 }, "geometry": { "type": "Point", "coordinates": [ 3398979.0, 5758848.0 ] } },
{ "type": "Feature", "properties": { "Produkt": "Bezirkssportanlage", "Teilprodukt": "nicht überlassen", "Objekt": "Sportzentrum Roxel", "Plz": 48161, "Strname": "Tilbecker Straße", "Hsnr": 34, "Rechtswert": 3398839, "Hochwert": 5758905 }, "geometry": { "type": "Point", "coordinates": [ 3398839.0, 5758905.0 ] } },
{ "type": "Feature", "properties": { "Produkt": "Sondersportanlagen", "Teilprodukt": "Bouleanlagen", "Objekt": "Sportzentrum Roxel", "Plz": 48161, "Strname": "Tilbecker Straße", "Hsnr": 34, "Rechtswert": 3398839, "Hochwert": 5758905 }, "geometry": { "type": "Point", "coordinates": [ 3398839.0, 5758905.0 ] } },
{ "type": "Feature", "properties": { "Produkt": "Sondersportanlagen", "Teilprodukt": "Speckbrettanlagen", "Objekt": "Alter Sportplatz Roxel", "Plz": 48161, "Strname": "Tilbecker Straße", "Hsnr": 34, "Rechtswert": 3398839, "Hochwert": 5758905 }, "geometry": { "type": "Point", "coordinates": [ 3398839.0, 5758905.0 ] } },
{ "type": "Feature", "properties": { "Produkt": "Sondersportanlagen", "Teilprodukt": "Beachvolleyballanlagen", "Objekt": "Hallenbad Roxel", "Plz": 48161, "Strname": "Tilbecker Straße", "Hsnr": 36, "Rechtswert": 3398779, "Hochwert": 5758874 }, "geometry": { "type": "Point", "coordinates": [ 3398779.0, 5758874.0 ] } },
{ "type": "Feature", "properties": { "Produkt": "Sportaußenanlagen an Schulen", "Teilprodukt": "Grundschulen", "Objekt": "Sportfläche Wartburg", "Plz": 48161, "Strname": "Toppheideweg", "Hsnr": 91, "Rechtswert": 3401636, "Hochwert": 5761018 }, "geometry": { "type": "Point", "coordinates": [ 3401636.0, 5761018.0 ] } },
{ "type": "Feature", "properties": { "Produkt": "Turn- und Sporthallen", "Teilprodukt": "Dreifachhallen", "Objekt": "Pascal-Gymnasium", "Plz": 48147, "Strname": "Uppenkampstiege", "Hsnr": 17, "Rechtswert": 3405666, "Hochwert": 5761119 }, "geometry": { "type": "Point", "coordinates": [ 3405666.0, 5761119.0 ] } },
{ "type": "Feature", "properties": { "Produkt": "Sondersportanlagen", "Teilprodukt": "Beachvolleyballanlagen", "Objekt": "Pascal-Gymnasium", "Plz": 48147, "Strname": "Uppenkampstiege", "Hsnr": 17, "Rechtswert": 3405666, "Hochwert": 5761119 }, "geometry": { "type": "Point", "coordinates": [ 3405666.0, 5761119.0 ] } },
{ "type": "Feature", "properties": { "Produkt": "Sportaußenanlagen an Schulen", "Teilprodukt": "Gymnasien\/B.-Kollegs", "Objekt": "Sportfläche Pascal-Gymnasium", "Plz": 48147, "Strname": "Uppenkampstiege", "Hsnr": 17, "Rechtswert": 3405666, "Hochwert": 5761119 }, "geometry": { "type": "Point", "coordinates": [ 3405666.0, 5761119.0 ] } },
{ "type": "Feature", "properties": { "Produkt": "Turn- und Sporthallen", "Teilprodukt": "Einfachhallen", "Objekt": "Idaschule", "Plz": 48167, "Strname": "Vörnste Esch", "Hsnr": 19, "Rechtswert": 3408797, "Hochwert": 5756176 }, "geometry": { "type": "Point", "coordinates": [ 3408797.0, 5756176.0 ] } },
{ "type": "Feature", "properties": { "Produkt": "Sportaußenanlagen an Schulen", "Teilprodukt": "Grundschulen", "Objekt": "Sportfläche Idaschule", "Plz": 48167, "Strname": "Vörnste Esch", "Hsnr": 19, "Rechtswert": 3408797, "Hochwert": 5756176 }, "geometry": { "type": "Point", "coordinates": [ 3408797.0, 5756176.0 ] } },
{ "type": "Feature", "properties": { "Produkt": "Turn- und Sporthallen", "Teilprodukt": "Einfachhallen", "Objekt": "Johannisschule", "Plz": 48151, "Strname": "Vogel-von-Falkenstein-Straße", "Hsnr": 4, "Rechtswert": 3405354, "Hochwert": 5758514 }, "geometry": { "type": "Point", "coordinates": [ 3405354.0, 5758514.0 ] } },
{ "type": "Feature", "properties": { "Produkt": "Sportaußenanlagen an Schulen", "Teilprodukt": "Grundschulen", "Objekt": "Sportfläche Johannisschule", "Plz": 48151, "Strname": "Vogel-von-Falkenstein-Straße", "Hsnr": 4, "Rechtswert": 3405354, "Hochwert": 5758514 }, "geometry": { "type": "Point", "coordinates": [ 3405354.0, 5758514.0 ] } },
{ "type": "Feature", "properties": { "Produkt": "Turn- und Sporthallen", "Teilprodukt": "Einfachhallen", "Objekt": "Wartburgschule", "Plz": 48149, "Strname": "Von-Esmarch-Straße", "Hsnr": 15, "Rechtswert": 3403594, "Hochwert": 5759846 }, "geometry": { "type": "Point", "coordinates": [ 3403594.0, 5759846.0 ] } },
{ "type": "Feature", "properties": { "Produkt": "Sportaußenanlagen an Schulen", "Teilprodukt": "Haupt-\/Realschulen", "Objekt": "Sportfläche Wartburgschule", "Plz": 48149, "Strname": "Von-Esmarch-Straße", "Hsnr": 15, "Rechtswert": 3403594, "Hochwert": 5759846 }, "geometry": { "type": "Point", "coordinates": [ 3403594.0, 5759846.0 ] } },
{ "type": "Feature", "properties": { "Produkt": "Turn- und Sporthallen", "Teilprodukt": "Zweifachhalle", "Objekt": "Schulzentrum Wolbeck", "Plz": 48167, "Strname": "Von-Holte-Straße", "Hsnr": 56, "Rechtswert": 3411946, "Hochwert": 5754161 }, "geometry": { "type": "Point", "coordinates": [ 3411946.0, 5754161.0 ] } },
{ "type": "Feature", "properties": { "Produkt": "Turn- und Sporthallen", "Teilprodukt": "Dreifachhallen", "Objekt": "Schulzentrum Wolbeck", "Plz": 48167, "Strname": "Von-Holte-Straße", "Hsnr": 56, "Rechtswert": 3411946, "Hochwert": 5754161 }, "geometry": { "type": "Point", "coordinates": [ 3411946.0, 5754161.0 ] } },
{ "type": "Feature", "properties": { "Produkt": "Sportaußenanlagen an Schulen", "Teilprodukt": "Schulzentren", "Objekt": "Sportfläche Schulzetnrum Wolbeck", "Plz": 48167, "Strname": "Von-Holte-Straße", "Hsnr": 56, "Rechtswert": 3411946, "Hochwert": 5754161 }, "geometry": { "type": "Point", "coordinates": [ 3411946.0, 5754161.0 ] } },
{ "type": "Feature", "properties": { "Produkt": "Turn- und Sporthallen", "Teilprodukt": "Dreifachhallen", "Objekt": "Schulzentrum Kinderhaus", "Plz": 48159, "Strname": "Von-Humboldt-Straße", "Hsnr": 14, "Rechtswert": 3404181, "Hochwert": 5763628 }, "geometry": { "type": "Point", "coordinates": [ 3404181.0, 5763628.0 ] } },
{ "type": "Feature", "properties": { "Produkt": "Turn- und Sporthallen", "Teilprodukt": "Zweifachhalle", "Objekt": "Schulzentrum Kinderhaus", "Plz": 48159, "Strname": "Von-Humboldt-Straße", "Hsnr": 14, "Rechtswert": 3404181, "Hochwert": 5763628 }, "geometry": { "type": "Point", "coordinates": [ 3404181.0, 5763628.0 ] } },
{ "type": "Feature", "properties": { "Produkt": "Bezirkssportanlage", "Teilprodukt": "überlassen", "Objekt": "Sportanlage Wangeroogeweg", "Plz": 48159, "Strname": "Wangeroogeweg", "Hsnr": 18, "Rechtswert": 3405113, "Hochwert": 5763493 }, "geometry": { "type": "Point", "coordinates": [ 3405113.0, 5763493.0 ] } },
{ "type": "Feature", "properties": { "Produkt": "Sondersportanlagen", "Teilprodukt": "Bouleanlagen", "Objekt": "Sportanlage Wangeroogeweg", "Plz": 48159, "Strname": "Wangeroogeweg", "Hsnr": 18, "Rechtswert": 3405113, "Hochwert": 5763493 }, "geometry": { "type": "Point", "coordinates": [ 3405113.0, 5763493.0 ] } },
{ "type": "Feature", "properties": { "Produkt": "Sondersportanlagen", "Teilprodukt": "Beachvolleyballanlagen", "Objekt": "Sportanlage Wangeroogeweg", "Plz": 48159, "Strname": "Wangeroogeweg", "Hsnr": 18, "Rechtswert": 3405113, "Hochwert": 5763493 }, "geometry": { "type": "Point", "coordinates": [ 3405113.0, 5763493.0 ] } },
{ "type": "Feature", "properties": { "Produkt": "Turn- und Sporthallen", "Teilprodukt": "Zweifachhalle", "Objekt": "Schulzentrum Hiltrup", "Plz": 48165, "Strname": "Westfalenstraße", "Hsnr": 201, "Rechtswert": 3406490, "Hochwert": 5752730 }, "geometry": { "type": "Point", "coordinates": [ 3406490.0, 5752730.0 ] } },
{ "type": "Feature", "properties": { "Produkt": "Turn- und Sporthallen", "Teilprodukt": "Dreifachhallen", "Objekt": "Schulzentrum Hiltrup", "Plz": 48165, "Strname": "Westfalenstraße", "Hsnr": 201, "Rechtswert": 3406490, "Hochwert": 5752730 }, "geometry": { "type": "Point", "coordinates": [ 3406490.0, 5752730.0 ] } },
{ "type": "Feature", "properties": { "Produkt": "Bezirkssportanlage", "Teilprodukt": "nicht überlassen", "Objekt": "Sportanlage Hiltrup-Süd", "Plz": 48165, "Strname": "Westfalenstraße", "Hsnr": 240, "Rechtswert": 3406510, "Hochwert": 5752347 }, "geometry": { "type": "Point", "coordinates": [ 3406510.0, 5752347.0 ] } },
{ "type": "Feature", "properties": { "Produkt": "Sportaußenanlagen an Schulen", "Teilprodukt": "Grundschulen", "Objekt": "Sportfläche Grundschule Lövelingloh", "Plz": 48163, "Strname": "Wiedaustraße", "Hsnr": 114, "Rechtswert": 3402174, "Hochwert": 5752082 }, "geometry": { "type": "Point", "coordinates": [ 3402174.0, 5752082.0 ] } },
{ "type": "Feature", "properties": { "Produkt": "Turn- und Sporthallen", "Teilprodukt": "Einfachhallen", "Objekt": "Abendgymnasium", "Plz": 48147, "Strname": "Wienburgstraße", "Hsnr": 52, "Rechtswert": 3405514, "Hochwert": 5761089 }, "geometry": { "type": "Point", "coordinates": [ 3405514.0, 5761089.0 ] } },
{ "type": "Feature", "properties": { "Produkt": "Turn- und Sporthallen", "Teilprodukt": "Einfachhallen", "Objekt": "Davertschule Amelsbüren", "Plz": 48163, "Strname": "Zum Häpper", "Hsnr": 10, "Rechtswert": 3404182, "Hochwert": 5751020 }, "geometry": { "type": "Point", "coordinates": [ 3404182.0, 5751020.0 ] } },
{ "type": "Feature", "properties": { "Produkt": "Turn- und Sporthallen", "Teilprodukt": "Gymnastikräume", "Objekt": "Davertschule Amelsbüren", "Plz": 48163, "Strname": "Zum Häpper", "Hsnr": 10, "Rechtswert": 3404182, "Hochwert": 5751020 }, "geometry": { "type": "Point", "coordinates": [ 3404182.0, 5751020.0 ] } },
{ "type": "Feature", "properties": { "Produkt": "Bezirkssportanlage", "Teilprodukt": "überlassen", "Objekt": "Sportanlage Zum Häpper", "Plz": 48163, "Strname": "Zum Häpper", "Hsnr": 24, "Rechtswert": 3404388, "Hochwert": 5751146 }, "geometry": { "type": "Point", "coordinates": [ 3404388.0, 5751146.0 ] } },
{ "type": "Feature", "properties": { "Produkt": "Sondersportanlagen", "Teilprodukt": "Bouleanlagen", "Objekt": "Sportanlage Zum Häpper", "Plz": 48163, "Strname": "Zum Häpper", "Hsnr": 24, "Rechtswert": 3404388, "Hochwert": 5751146 }, "geometry": { "type": "Point", "coordinates": [ 3404388.0, 5751146.0 ] } },
{ "type": "Feature", "properties": { "Produkt": "Sondersportanlagen", "Teilprodukt": "Beachvolleyballanlagen", "Objekt": "Sportanlage Amelsbüren", "Plz": 48163, "Strname": "Zum Häpper", "Hsnr": 24, "Rechtswert": 3404388, "Hochwert": 5751146 }, "geometry": { "type": "Point", "coordinates": [ 3404388.0, 5751146.0 ] } },
{ "type": "Feature", "properties": { "Produkt": "Sondersportanlagen", "Teilprodukt": "Beachvolleyballanlagen", "Objekt": "Freibad Hiltrup", "Plz": 48165, "Strname": "Zum Hiltruper See", "Hsnr": 171, "Rechtswert": 3407608, "Hochwert": 5751422 }, "geometry": { "type": "Point", "coordinates": [ 3407608.0, 5751422.0 ] } }
]
}
